{
    "links": {
        "self": "http://www.neowsapp.com/rest/v1/neo/3765005?api_key=iIulBulltgU6a56xZRHN4H3l9WmuAYTsLGpBGhQ2"
    },
    "id": "3765005",
    "neo_reference_id": "3765005",
    "name": "(2016 WN48)",
    "designation": "2016 WN48",
    "nasa_jpl_url": "http://ssd.jpl.nasa.gov/sbdb.cgi?sstr=3765005",
    "absolute_magnitude_h": 24.8,
    "estimated_diameter": {
        "kilometers": {
            "estimated_diameter_min": 0.0291443905,
            "estimated_diameter_max": 0.0651688382
        },
        "meters": {
            "estimated_diameter_min": 29.1443904535,
            "estimated_diameter_max": 65.1688382168
        },
        "miles": {
            "estimated_diameter_min": 0.018109479,
            "estimated_diameter_max": 0.0404940262
        },
        "feet": {
            "estimated_diameter_min": 95.6180819754,
            "estimated_diameter_max": 213.8085311752
        }
    },
    "is_potentially_hazardous_asteroid": false,
    "close_approach_data": [
        {
            "close_approach_date": "1922-11-11",
            "close_approach_date_full": "1922-Nov-11 03:29",
            "epoch_date_close_approach": -1487622660000,
            "relative_velocity": {
                "kilometers_per_second": "6.0543454027",
                "kilometers_per_hour": "21795.6434497185",
                "miles_per_hour": "13542.9652312987"
            },
            "miss_distance": {
                "astronomical": "1.5159931107",
                "lunar": "589.7213200623",
                "kilometers": "226789340.295394209",
                "miles": "140920361.4955657242"
            },
            "orbiting_body": "Juptr"
        },
        {
            "close_approach_date": "2016-11-18",
            "close_approach_date_full": "2016-Nov-18 23:15",
            "epoch_date_close_approach": 1479510900000,
            "relative_velocity": {
                "kilometers_per_second": "10.7669217111",
                "kilometers_per_hour": "38760.9181598635",
                "miles_per_hour": "24084.5271754996"
            },
            "miss_distance": {
                "astronomical": "0.0688028383",
                "lunar": "26.7643040987",
                "kilometers": "10292758.059634421",
                "miles": "6395623.2892641698"
            },
            "orbiting_body": "Earth"
        }
    ],
    "orbital_data": {
        "orbit_id": "5",
        "orbit_determination_date": "2017-08-10 06:20:13",
        "first_observation_date": "2016-11-12",
        "last_observation_date": "2016-12-04",
        "data_arc_in_days": 22,
        "observations_used": 40,
        "orbit_uncertainty": "8",
        "minimum_orbit_intersection": ".057666",
        "jupiter_tisserand_invariant": "3.010",
        "epoch_osculation": "2457723.5",
        "eccentricity": ".6407486154944805",
        "semi_major_axis": "2.739533039794332",
        "inclination": "4.839230238640171",
        "ascending_node_longitude": "88.95617703951147",
        "orbital_period": "1656.201755749022",
        "perihelion_distance": ".9841810374447285",
        "perihelion_argument": "299.2346281046156",
        "aphelion_distance": "4.494885042143937",
        "perihelion_time": "2457690.160898445017",
        "mean_anomaly": "7.246747878470827",
        "mean_motion": ".2173648220999434",
        "equinox": "J2000",
        "orbit_class": {
            "orbit_class_type": "APO",
            "orbit_class_description": "Near-Earth asteroid orbits which cross the Earth’s orbit similar to that of 1862 Apollo",
            "orbit_class_range": "a (semi-major axis) > 1.0 AU; q (perihelion) < 1.017 AU"
        }
    },
    "is_sentry_object": false
}